IRIDIUM 155             
1 43573U 18061E   25079.82502595  .00000129  00000+0  38920-4 0  9994
2 43573  86.3929 246.0808 0002020  84.4231 275.7195 14.34218405348378
IRIDIUM 154             
1 43574U 18061F   25079.52692437  .00000096  00000+0  27040-4 0  9991
2 43574  86.3934 246.3167 0002069  94.0337 266.1095 14.34218061348385
IRIDIUM 163             
1 43575U 18061G   25079.36835519  .00000325  00000+0  10902-3 0  9997
2 43575  86.3929 246.3126 0002198  91.5307 268.6141 14.34219267348330
IRIDIUM 156             
1 43576U 18061H   25079.83136889  .00000085  00000+0  23288-4 0  9999
2 43576  86.3933 246.1259 0001865  83.1687 276.9721 14.34218074348396
IRIDIUM 164             
1 43577U 18061J   25079.81234169 -.00000014  00000+0 -12214-4 0  9999
2 43577  86.3936 246.1674 0001861  99.2731 260.8675 14.34217443348439
IRIDIUM 159             
1 43578U 18061K   25079.98993470  .00000051  00000+0  11074-4 0  9997
2 43578  86.3932 246.0388 0002194  97.2862 262.8583 14.34217876348429
IRIDIUM 180             
1 43922U 19002A   25079.22197769  .00000125  00000+0  37688-4 0  9991
2 43922  86.4049 183.3127 0002315  98.3567 261.7891 14.34217732323924
IRIDIUM 176             
1 43923U 19002B   25079.81436496  .00000132  00000+0  17064-4 0  9994
2 43923  86.6170 183.0651 0002929  92.1726 267.9827 14.72220451332540
IRIDIUM 168             
1 43924U 19002C   25079.77377887  .00000889  00000+0  31041-3 0  9997
2 43924  86.4050 183.1459 0002206  98.3601 261.7845 14.34222743323985
IRIDIUM 173             
1 43925U 19002D   25079.83086073  .00000889  00000+0  31031-3 0  9998
2 43925  86.4046 183.0296 0002262  91.4914 268.6541 14.34222763323972
IRIDIUM 169             
1 43926U 19002E   25079.81835929  .00001225  00000+0  39383-3 0  9992
2 43926  86.4262 214.6035 0002971  63.1873 296.9629 14.38635056325040
IRIDIUM 172             
1 43927U 19002F   25079.82453672  .00000166  00000+0  52396-4 0  9998
2 43927  86.4048 183.0390 0002433  99.6866 260.4605 14.34202749323981
IRIDIUM 175             
1 43928U 19002G   25079.53731565  .00000366  00000+0  54142-4 0  9990
2 43928  86.1522 140.7721 0001506  72.6993 287.4389 14.72233928332495
IRIDIUM 171             
1 43929U 19002H   25079.73572187  .00000569  00000+0  19607-3 0  9997
2 43929  86.4058 183.3319 0001811 104.1366 256.0031 14.34217641323963
IRIDIUM 170             
1 43930U 19002J   25079.88852434  .00000245  00000+0  34971-4 0  9994
2 43930  86.6166 183.0385 0001873  92.3347 267.8085 14.72224708332561
IRIDIUM 167             
1 43931U 19002K   25080.21776118  .00000962  00000+0  33637-3 0  9991
2 43931  86.4047 182.8936 0001763  88.9805 271.1593 14.34221796324032
IRIDIUM 181             
1 56726U 23068S   25079.83086310  .00000488  00000+0  13887-3 0  9996
2 56726  86.4471 246.1257 0001606  93.4440 266.6944 14.43319704 97045
IRIDIUM 177             
1 56727U 23068T   25079.31009682  .00005270  00000+0  68897-3 0  9992
2 56727  86.2035 184.2798 0002048  89.1570 270.9885 14.80283920 99224
IRIDIUM 174             
1 56728U 23068U   25079.37230939  .00004728  00000+0  61841-3 0  9999
2 56728  86.2047 184.3752 0002130 104.9907 255.1550 14.80245499 99235
IRIDIUM 178             
1 56729U 23068V   25079.97527478  .00004720  00000+0  61688-3 0  9994
2 56729  86.5808 214.6158 0002212 118.2585 241.8860 14.80281426 99328
IRIDIUM 179             
1 56730U 23068W   25079.36149794  .00000096  00000+0  91783-5 0  9993
2 56730  86.6793 222.4811 0001987  98.3447 261.8000 14.80218814 99239
